NORAD_CAT_ID,OBJECT_NAME,OBJECT_TYPE,EPOCH,MEAN_MOTION,ECCENTRICITY,INCLINATION,RA_OF_ASC_NODE,ARG_OF_PERICENTER,MEAN_ANOMALY,BSTAR,MEAN_MOTION_DOT,MEAN_MOTION_DDOT,TLE_LINE0,TLE_LINE1,TLE_LINE2,SEMIMAJOR_AXIS,PERIOD,APOGEE,PERIGEE,DECAYED
51872.0,STARLINK-3554,PAYLOAD,2022-10-13 19:48:46,15.08845448,0.0001435,53.2183,188.5644,63.9091,296.2049,0.00016408,2.325e-05,0.0,0 STARLINK-3554,1 51872U 22022W   22286.82553582  .00002325  00000-0  16408-3 0  9993,2 51872  53.2183 188.5644 0001435  63.9091 296.2049 15.08845448 35483,6917.864000000001,95.437,540.721,538.736,0.0
51872.0,STARLINK-3554,PAYLOAD,2022-10-14 03:45:41,15.08846306,0.0001523,53.2176,187.0769,63.7849,296.3299,7.2771e-05,8.71e-06,0.0,0 STARLINK-3554,1 51872U 22022W   22287.15673373  .00000871  00000-0  72771-4 0  9991,2 51872  53.2176 187.0769 0001523  63.7849 296.3299 15.08846306 35532,6917.861,95.437,540.78,538.673,0.0
51872.0,STARLINK-3554,PAYLOAD,2022-10-14 10:07:14,15.08854482,0.0001284999999999,53.2174,185.8881,67.1175,292.9953,0.00022436,3.286e-05,0.0,0 STARLINK-3554,1 51872U 22022W   22287.42169020  .00003286  00000-0  22436-3 0  9995,2 51872  53.2174 185.8881 0001285  67.1175 292.9953 15.08854482 35573,6917.8359999999975,95.437,540.59,538.812,0.0
51872.0,STARLINK-3554,PAYLOAD,2022-10-14 19:39:33,15.08841104,0.000172,53.2167,184.106,66.8174,293.3,3.2157e-05,2.24e-06,0.0,0 STARLINK-3554,1 51872U 22022W   22287.81913629  .00000224  00000-0  32157-4 0  9991,2 51872  53.2167 184.1060 0001720  66.8174 293.3000 15.08841104 35637,6917.877,95.437,540.932,538.552,0.0
51872.0,STARLINK-3554,PAYLOAD,2022-10-15 00:25:42,15.0883878,0.0001518,53.2178,183.2132,68.9193,291.1962,2.3384e-05,8.4e-07,0.0,0 STARLINK-3554,1 51872U 22022W   22288.01785697  .00000084  00000-0  23384-4 0  9992,2 51872  53.2178 183.2132 0001518  68.9193 291.1962 15.08838780 35660,6917.884,95.438,540.799,538.6990000000002,0.0
51872.0,STARLINK-3554,PAYLOAD,2022-10-15 05:11:52,15.08843624,0.0001450999999999,53.2188,182.3204,67.3821,292.7324,0.00011285,1.509e-05,0.0,0 STARLINK-3554,1 51872U 22022W   22288.21657427  .00001509  00000-0  11285-3 0  9992,2 51872  53.2188 182.3204 0001451  67.3821 292.7324 15.08843624 35693,6917.869000000002,95.437,540.738,538.731,0.0
51872.0,STARLINK-3554,PAYLOAD,2022-10-15 19:30:20,15.08842739,0.0001365999999999,53.2184,179.6434,67.5292,292.5845,8.356700000000001e-05,1.042e-05,0.0,0 STARLINK-3554,1 51872U 22022W   22288.81273308  .00001042  00000-0  83567-4 0  9995,2 51872  53.2184 179.6434 0001366  67.5292 292.5845 15.08842739 35784,6917.871999999999,95.437,540.682,538.7919999999998,0.0
51872.0,STARLINK-3554,PAYLOAD,2022-10-16 03:27:16,15.08835873,0.0001383,53.2175,178.1559,61.8308,298.2824,-5.1417e-05,-1.106e-05,0.0,0 STARLINK-3554,1 51872U 22022W   22289.14394091 -.00001106  00000-0 -51417-4 0  9997,2 51872  53.2175 178.1559 0001383  61.8308 298.2824 15.08835873 35837,6917.893,95.438,540.715,538.8009999999998,0.0
51872.0,STARLINK-3554,PAYLOAD,2022-10-16 09:48:49,15.08830964,0.0001358,53.2182,176.9676,65.1001,295.0132,-2.2712e-05,-6.49e-06,0.0,0 STARLINK-3554,1 51872U 22022W   22289.40890501 -.00000649  00000-0 -22712-4 0  9990,2 51872  53.2182 176.9676 0001358  65.1001 295.0132 15.08830964 35877,6917.908,95.438,540.712,538.8340000000002,0.0
51872.0,STARLINK-3554,PAYLOAD,2022-10-16 19:21:08,15.08830782,0.0001396999999999,53.2178,175.1834,66.8738,293.2402,2.3676e-05,8.9e-07,0.0,0 STARLINK-3554,1 51872U 22022W   22289.80634486  .00000089  00000-0  23676-4 0  9998,2 51872  53.2178 175.1834 0001397  66.8738 293.2402 15.08830782 35932,6917.909000000002,95.438,540.74,538.807,0.0
51872.0,STARLINK-3554,PAYLOAD,2022-10-17 01:42:41,15.08822281,0.0001378,53.2184,173.9935,66.2608,293.8528,7.7489e-05,9.45e-06,0.0,0 STARLINK-3554,1 51872U 22022W   22290.07131034  .00000945  00000-0  77489-4 0  9992,2 51872  53.2184 173.9935 0001378  66.2608 293.8528 15.08822281 35970,6917.935,95.439,540.753,538.846,0.0
51872.0,STARLINK-3554,PAYLOAD,2022-10-17 09:39:36,15.08836098,0.000145,53.2185,172.5068,65.2941,294.8202,2.4353e-05,1e-06,0.0,0 STARLINK-3554,1 51872U 22022W   22290.40250463  .00000100  00000-0  24353-4 0  9992,2 51872  53.2185 172.5068 0001450  65.2941 294.8202 15.08836098 36021,6917.892,95.438,540.76,538.754,0.0
51872.0,STARLINK-3554,PAYLOAD,2022-10-18 01:33:28,15.08829584,0.0001395999999999,53.2184,169.5339,63.3009,296.8126,8.6714e-05,1.092e-05,0.0,0 STARLINK-3554,1 51872U 22022W   22291.06490788  .00001092  00000-0  86714-4 0  9991,2 51872  53.2184 169.5339 0001396  63.3009 296.8126 15.08829584 36120,6917.9119999999975,95.438,540.743,538.811,0.0
51872.0,STARLINK-3554,PAYLOAD,2022-10-18 15:51:55,15.08837589,0.0001548,53.2186,166.8581,61.4631,298.6517,0.00013622,1.88e-05,0.0,0 STARLINK-3554,1 51872U 22022W   22291.66106438  .00001880  00000-0  13622-3 0  9995,2 51872  53.2186 166.8581 0001548  61.4631 298.6517 15.08837589 36218,6917.888000000001,95.438,540.8240000000002,538.682,0.0
51872.0,STARLINK-3554,PAYLOAD,2022-10-19 01:24:15,15.08831389,0.0001404,53.2182,165.0736,66.5868,293.5271,0.00011482,1.539e-05,0.0,0 STARLINK-3554,1 51872U 22022W   22292.05851022  .00001539  00000-0  11482-3 0  9998,2 51872  53.2182 165.0736 0001404  66.5868 293.5271 15.08831389 36275,6917.906999999997,95.438,540.743,538.8,0.0
51872.0,STARLINK-3554,PAYLOAD,2022-10-19 17:18:06,15.08843535,0.0001299,53.2179,162.0995,65.1419,294.9708,7.3539e-05,8.83e-06,0.0,0 STARLINK-3554,1 51872U 22022W   22292.72090362  .00000883  00000-0  73539-4 0  9997,2 51872  53.2179 162.0995 0001299  65.1419 294.9708 15.08843535 36371,6917.87,95.437,540.633,538.836,0.0
51872.0,STARLINK-3554,PAYLOAD,2022-10-19 22:04:15,15.08836551,0.0001343,53.2182,161.2078,64.62899999999999,295.4841,8.0742e-05,9.97e-06,0.0,0 STARLINK-3554,1 51872U 22022W   22292.91962753  .00000997  00000-0  80742-4 0  9990,2 51872  53.2182 161.2078 0001343  64.6290 295.4841 15.08836551 36407,6917.891,95.438,540.685,538.827,0.0
51872.0,STARLINK-3554,PAYLOAD,2022-10-20 01:15:02,15.08834257,0.000134,53.2178,160.6126,65.6028,294.5104,8.233200000000001e-05,1.022e-05,0.0,0 STARLINK-3554,1 51872U 22022W   22293.05210910  .00001022  00000-0  82332-4 0  9994,2 51872  53.2178 160.6126 0001340  65.6028 294.5104 15.08834257 36421,6917.898,95.438,540.69,538.836,0.0
51872.0,STARLINK-3554,PAYLOAD,2022-10-21 01:05:48,15.08840541,0.00014,53.2173,156.1517,65.4724,294.6414,0.00013126,1.802e-05,0.0,0 STARLINK-3554,1 51872U 22022W   22294.04570315  .00001802  00000-0  13126-3 0  9992,2 51872  53.2173 156.1517 0001400  65.4724 294.6414 15.08840541 36572,6917.879,95.438,540.712,538.775,0.0
51872.0,STARLINK-3554,PAYLOAD,2022-10-21 07:27:21,15.08835188,0.0001582,53.2177,154.9628,58.6866,301.4281,1.152e-05,-1.05e-06,0.0,0 STARLINK-3554,1 51872U 22022W   22294.31066906 -.00000105  00000-0  11520-4 0  9991,2 51872  53.2177 154.9628 0001582  58.6866 301.4281 15.08835188 36612,6917.895,95.438,540.855,538.6659999999998,0.0
51872.0,STARLINK-3554,PAYLOAD,2022-10-21 16:59:40,15.08835034,0.0001378,53.2173,153.1785,64.1738,295.9396,5.6575e-05,6.12e-06,0.0,0 STARLINK-3554,1 51872U 22022W   22294.70810828  .00000612  00000-0  56575-4 0  9995,2 51872  53.2173 153.1785 0001378  64.1738 295.9396 15.08835034 36676,6917.896,95.438,540.714,538.807,0.0
51872.0,STARLINK-3554,PAYLOAD,2022-10-22 00:56:35,15.08840944,0.0001692,53.2171,151.6927,71.6792,288.4384,0.00010268,1.347e-05,0.0,0 STARLINK-3554,1 51872U 22022W   22295.03930445  .00001347  00000-0  10268-3 0  9994,2 51872  53.2171 151.6927 0001692  71.6792 288.4384 15.08840944 36723,6917.878000000002,95.437,540.913,538.572,0.0
51872.0,STARLINK-3554,PAYLOAD,2022-10-22 07:18:08,15.08846103,0.0001626999999999,53.2172,150.5028,61.5354,298.5802,0.00011637,1.565e-05,0.0,0 STARLINK-3554,1 51872U 22022W   22295.30426069  .00001565  00000-0  11637-3 0  9999,2 51872  53.2172 150.5028 0001627  61.5354 298.5802 15.08846103 36768,6917.861999999999,95.437,540.852,538.601,0.0
51872.0,STARLINK-3554,PAYLOAD,2022-10-22 20:01:13,15.08840815,0.0001489,53.2179,148.1236,70.4564,289.6589,1.3128e-05,-7.9e-07,0.0,0 STARLINK-3554,1 51872U 22022W   22295.83418537 -.00000079  00000-0  13128-4 0  9996,2 51872  53.2179 148.1236 0001489  70.4564 289.6589 15.08840815 36843,6917.878000000002,95.438,540.773,538.7130000000002,0.0
51872.0,STARLINK-3554,PAYLOAD,2022-10-23 00:47:22,15.08844431,0.0001469,53.2177,147.2314,65.4984,294.6161,4.3592e-05,4.06e-06,0.0,0 STARLINK-3554,1 51872U 22022W   22296.03290215  .00000406  00000-0  43592-4 0  9991,2 51872  53.2177 147.2314 0001469  65.4984 294.6161 15.08844431 36879,6917.8669999999975,95.437,540.748,538.716,0.0
51872.0,STARLINK-3554,PAYLOAD,2022-10-23 13:30:28,15.08824742,0.0001919,53.22,144.8549,78.422,281.6987,0.00050495,7.754e-05,0.0,0 STARLINK-3554,1 51872U 22022W   22296.56282549  .00007754  00000-0  50495-3 0  9992,2 51872  53.2200 144.8549 0001919  78.4220 281.6987 15.08824742 36950,6917.927,95.439,541.12,538.464,0.0
51872.0,STARLINK-3554,PAYLOAD,2022-10-23 18:16:36,15.08852299,0.00015,53.2194,143.9628,72.4176,287.698,0.00012752,1.743e-05,0.0,0 STARLINK-3554,1 51872U 22022W   22296.76153316  .00001743  00000-0  12752-3 0  9999,2 51872  53.2194 143.9628 0001500  72.4176 287.6980 15.08852299 36980,6917.843000000003,95.437,540.745,538.67,0.0
51872.0,STARLINK-3554,PAYLOAD,2022-10-24 02:13:32,15.08847697,0.0001561999999999,53.2178,142.4749,74.1693,285.9471,8.8204e-05,1.116e-05,0.0,0 STARLINK-3554,1 51872U 22022W   22297.09273613  .00001116  00000-0  88204-4 0  9999,2 51872  53.2178 142.4749 0001562  74.1693 285.9471 15.08847697 37030,6917.857,95.437,540.802,538.641,0.0
51872.0,STARLINK-3554,PAYLOAD,2022-10-24 06:59:41,15.08852281,0.0001448,53.2177,141.5825,63.0602,297.0538,-5.2044e-05,-1.116e-05,0.0,0 STARLINK-3554,1 51872U 22022W   22297.29145521 -.00001116  00000-0 -52044-4 0  9992,2 51872  53.2177 141.5825 0001448  63.0602 297.0538 15.08852281 37060,6917.843000000003,95.437,540.71,538.706,0.0
